[{"OBJECT_NAME":"TEVEL2-3","OBJECT_ID":"2025-052J","EPOCH":"2026-03-09T15:29:22.754400","MEAN_MOTION":15.30377031,"ECCENTRICITY":0.0004761,"INCLINATION":97.3994,"RA_OF_ASC_NODE":324.7775,"ARG_OF_PERICENTER":105.7353,"MEAN_ANOMALY":254.4413,"EPHEMERIS_TYPE":0,"CLASSIFICATION_TYPE":"U","NORAD_CAT_ID":63218,"ELEMENT_SET_NO":999,"REV_AT_EPOCH":5485,"BSTAR":0.00069446,"MEAN_MOTION_DOT":0.00020365,"MEAN_MOTION_DDOT":0},{"OBJECT_NAME":"STARLINK-33650","OBJECT_ID":"2025-057Q","EPOCH":"2026-03-09T06:08:15.734688","MEAN_MOTION":15.27596519,"ECCENTRICITY":0.00013886,"INCLINATION":42.9992,"RA_OF_ASC_NODE":33.0786,"ARG_OF_PERICENTER":269.6659,"MEAN_ANOMALY":90.4034,"EPHEMERIS_TYPE":0,"CLASSIFICATION_TYPE":"U","NORAD_CAT_ID":63321,"ELEMENT_SET_NO":999,"REV_AT_EPOCH":5567,"BSTAR":0.001041899,"MEAN_MOTION_DOT":0.00028534,"MEAN_MOTION_DDOT":0}]
