TEVEL2-3                
1 63218U 25052J   26068.64540225  .00020365  00000+0  69446-3 0  9991
2 63218  97.3994 324.7775 0004761 105.7353 254.4413 15.30377031 54855
STARLINK-33650          
1 63321U 25057Q   26068.25573767  .00028534  00000+0  10419-2 0  9996
2 63321  42.9992  33.0786 0001388 269.6659  90.4034 15.27596519 55675
